*******************************************************************************
 Revised: Jun 17, 2016             Oberon  / (Uranus)                       704

 SATELLITE PHYSICAL PROPERTIES:
  Radius (km)           = 761.4  +- 2.6     Density (g cm^-3)   =  1.63 +- 0.05
  Mass (10^20 kg )      =  30.14 +- 0.75    Geometric Albedo    =  0.24 
                                            V(1,0)              = +1.23

 SATELLITE ORBITAL DATA:
  Semi-major axis, a (km) = 582.6 (10^3)    Orbital period      = 13.463 d
  Eccentricity, e         =   0.0008        Rotational period   = Synchronous
  Inclination, i  (deg)   =   0.10
*******************************************************************************
 
 
*******************************************************************************
Ephemeris / WWW_USER Thu Jun 18 11:33:28 2020 Pasadena, USA      / Horizons
*******************************************************************************
Target body name: Oberon (704)                    {source: ura111}
Center body name: Solar System Barycenter (0)     {source: DE431mx}
Center-site name: BODY CENTER
*******************************************************************************
Start time      : A.D. 2000-Jun-05 00:00:00.0000 TDB
Stop  time      : A.D. 2040-May-26 00:00:00.0000 TDB
Step-size       : 14400 minutes
*******************************************************************************
Center geodetic : 0.00000000,0.00000000,0.0000000 {E-lon(deg),Lat(deg),Alt(km)}
Center cylindric: 0.00000000,0.00000000,0.0000000 {E-lon(deg),Dxy(km),Dz(km)}
Center radii    : (undefined)                                                  
Output units    : AU-D
Output type     : GEOMETRIC cartesian states
Output format   : 3 (position, velocity, LT, range, range-rate)
Reference frame : Ecliptic of J2000.0
*******************************************************************************
JDTDB
   X     Y     Z
   VX    VY    VZ
   LT    RG    RR
*******************************************************************************
$$SOE
2455860.500000000 = A.D. 2011-Oct-26 00:00:00.0000 TDB 
 X = 2.005501742673449E+01 Y = 9.534787864158492E-01 Z =-2.563526984566111E-01
 VX=-3.235494379243696E-04 VY= 3.512541492916135E-03 VZ=-1.786077581184386E-03
 LT= 1.159684046382956E-01 RG= 2.007930682291536E+01 RR=-1.335598898978099E-04
2455870.500000000 = A.D. 2011-Nov-05 00:00:00.0000 TDB 
 X = 2.004907381168340E+01 Y = 9.923107196888027E-01 Z =-2.522013743729676E-01
 VX= 1.556058144933971E-03 VY= 3.362173339580276E-03 VZ= 4.445342031411557E-05
 LT= 1.159446844225356E-01 RG= 2.007519979487064E+01 RR= 1.719665776103096E-03
2455880.500000000 = A.D. 2011-Nov-15 00:00:00.0000 TDB 
 X = 2.004293949190915E+01 Y = 1.030016470261350E+00 Z =-2.561286885149591E-01
 VX=-2.849913429531136E-04 VY= 4.012002990957175E-03 VZ= 1.815682655385235E-03
 LT= 1.159205605541235E-01 RG= 2.007102287653575E+01 RR=-1.018724114343487E-04
2455890.500000000 = A.D. 2011-Nov-25 00:00:00.0000 TDB 
 X = 2.004469335430759E+01 Y = 1.066057748066399E+00 Z =-2.595648892133625E-01
 VX=-2.013590812399317E-03 VY= 4.103307997335773E-03 VZ=-1.717213124566076E-04
 LT= 1.159417985144358E-01 RG= 2.007470011537278E+01 RR=-1.790456348653753E-03
2455900.500000000 = A.D. 2011-Dec-05 00:00:00.0000 TDB 
 X = 2.004577723281786E+01 Y = 1.103366315181233E+00 Z =-2.549665856233126E-01
 VX=-2.782372755226280E-05 VY= 3.443138897042194E-03 VZ=-1.766258344680696E-03
 LT= 1.159593506120904E-01 RG= 2.007773916687384E+01 RR= 1.838669215680453E-04
2455910.500000000 = A.D. 2011-Dec-15 00:00:00.0000 TDB 
 X = 2.003886577786932E+01 Y = 1.142218371608994E+00 Z =-2.515934840726773E-01
 VX= 1.499702230155992E-03 VY= 3.412861363779286E-03 VZ= 3.712753177939174E-04
 LT= 1.159318031992835E-01 RG= 2.007296948020225E+01 RR= 1.686703814747958E-03
2455920.500000000 = A.D. 2011-Dec-25 00:00:00.0000 TDB 
 X = 2.003321209032803E+01 Y = 1.179652749182177E+00 Z =-2.561310063507661E-01
 VX=-6.320020557123136E-04 VY= 4.072190953351161E-03 VZ= 1.765084153874882E-03
 LT= 1.159120443104722E-01 RG= 2.006954833465697E+01 RR=-4.140278900332505E-04
2455930.500000000 = A.D. 2012-Jan-04 00:00:00.0000 TDB 
 X = 2.003527153203159E+01 Y = 1.215664041292406E+00 Z =-2.587423284593141E-01
 VX=-1.990332015794290E-03 VY= 4.044637803014913E-03 VZ=-4.920544723107573E-04
 LT= 1.159365201237387E-01 RG= 2.007378619035440E+01 RR=-1.735228520815871E-03
2455940.500000000 = A.D. 2012-Jan-14 00:00:00.0000 TDB 
 X = 2.003523457250802E+01 Y = 1.253212106675813E+00 Z =-2.536006909913081E-01
 VX= 2.584278812426025E-04 VY= 3.383643265056693E-03 VZ=-1.689682071217252E-03
 LT= 1.159492631960631E-01 RG= 2.007599258493116E+01 RR= 4.904659345919455E-04
2455950.500000000 = A.D. 2012-Jan-24 00:00:00.0000 TDB 
 X = 2.002750423059792E+01 Y = 1.292035806556901E+00 Z =-2.511038267550529E-01
 VX= 1.388111858423016E-03 VY= 3.473750440189018E-03 VZ= 6.869259821780155E-04
 LT= 1.159187442439517E-01 RG= 2.007070839217824E+01 RR= 1.600149615973232E-03
2455960.500000000 = A.D. 2012-Feb-03 00:00:00.0000 TDB 
 X = 2.002243978885594E+01 Y = 1.329193945483687E+00 Z =-2.561042470411067E-01
 VX=-9.703017010734414E-04 VY= 4.122179993309721E-03 VZ= 1.657552093740735E-03
 LT= 1.159039389350988E-01 RG= 2.006814493241527E+01 RR=-7.162165151173859E-04
2455970.500000000 = A.D. 2012-Feb-13 00:00:00.0000 TDB 
 X = 2.002464986189230E+01 Y = 1.365221298461860E+00 Z =-2.577882883418466E-01
 VX=-1.907862718590366E-03 VY= 3.975363434300239E-03 VZ=-7.948923989135457E-04
 LT= 1.159307648389367E-01 RG= 2.007278969368143E+01 RR=-1.622700114972964E-03
2455980.500000000 = A.D. 2012-Feb-23 00:00:00.0000 TDB 
 X = 2.002340484189190E+01 Y = 1.403003618058006E+00 Z =-2.522584976475251E-01
 VX= 5.279439435895326E-04 VY= 3.336025600436649E-03 VZ=-1.553566424009646E-03
 LT= 1.159382324361783E-01 RG= 2.007408266806279E+01 RR= 7.792929766434434E-04
2455990.500000000 = A.D. 2012-Mar-04 00:00:00.0000 TDB 
 X = 2.001502746273233E+01 Y = 1.441748767086548E+00 Z =-2.507129919913422E-01
 VX= 1.223022587053558E-03 VY= 3.542566655612349E-03 VZ= 9.780667461823261E-04
 LT= 1.159057203481858E-01 RG= 2.006845337452985E+01 RR= 1.462051269601373E-03
2456000.500000000 = A.D. 2012-Mar-14 00:00:00.0000 TDB 
 X = 2.001061578021474E+01 Y = 1.478639093220480E+00 Z =-2.560044839059830E-01
 VX=-1.287418294936163E-03 VY= 4.159942141859803E-03 VZ= 1.497927386929151E-03
 LT= 1.158961991032490E-01 RG= 2.006680482207267E+01 RR=-9.963945967882157E-04
2456010.500000000 = A.D. 2012-Mar-24 00:00:00.0000 TDB 
 X = 2.001281022532886E+01 Y = 1.514726147397763E+00 Z =-2.566931847437376E-01
 VX=-1.773205777684621E-03 VY= 3.897886895479250E-03 VZ=-1.074086593388964E-03
 LT= 1.159244308531791E-01 RG= 2.007169299804408E+01 RR=-1.460110455734142E-03
2456020.500000000 = A.D. 2012-Apr-03 00:00:00.0000 TDB 
 X = 2.001029138974818E+01 Y = 1.552729083158666E+00 Z =-2.509564945374992E-01
 VX= 7.685268153538630E-04 VY= 3.302082490928929E-03 VZ=-1.363938144701109E-03
 LT= 1.159262793753847E-01 RG= 2.007201305974235E+01 RR= 1.038658858392958E-03
2456030.500000000 = A.D. 2012-Apr-13 00:00:00.0000 TDB 
 X = 2.000143415639556E+01 Y = 1.591350482211156E+00 Z =-2.504093263808746E-01
 VX= 1.004519944667615E-03 VY= 3.618251781254287E-03 VZ= 1.237324167724803E-03
 LT= 1.158927184713114E-01 RG= 2.006620216933436E+01 RR= 1.272782389115552E-03
2456040.500000000 = A.D. 2012-Apr-23 00:00:00.0000 TDB 
 X = 1.999771222631106E+01 Y = 1.627989592877635E+00 Z =-2.558032178985515E-01
 VX=-1.569086262839833E-03 VY= 4.183158050349696E-03 VZ= 1.291637015130358E-03
 LT= 1.158886615592801E-01 RG= 2.006549973679090E+01 RR=-1.240856345599619E-03
2456050.500000000 = A.D. 2012-May-03 00:00:00.0000 TDB 
 X = 1.999971364688945E+01 Y = 1.664174821037640E+00 Z =-2.554819477079375E-01
 VX=-1.592222888945122E-03 VY= 3.815190198197967E-03 VZ=-1.317621981329729E-03
 LT= 1.159172996084175E-01 RG= 2.007045826128931E+01 RR=-1.253495531489962E-03
2456060.500000000 = A.D. 2012-May-13 00:00:00.0000 TDB 
 X = 1.999589424789306E+01 Y = 1.702375971436530E+00 Z =-2.497216835333646E-01
 VX= 9.752274468960806E-04 VY= 3.281490776199716E-03 VZ=-1.130620390869044E-03
 LT= 1.159134056638127E-01 RG= 2.006978404568106E+01 RR= 1.264050291391855E-03
2456070.500000000 = A.D. 2012-May-23 00:00:00.0000 TDB 
 X = 1.998674179925202E+01 Y = 1.740829153890287E+00 Z =-2.501881953303042E-01
 VX= 7.411046437240165E-04 VY= 3.697627208501439E-03 VZ= 1.455390689911568E-03
 LT= 1.158798316983920E-01 RG= 2.006397089377088E+01 RR= 1.040924697582689E-03
2456080.500000000 = A.D. 2012-Jun-02 00:00:00.0000 TDB 
 X = 1.998372655761729E+01 Y = 1.777236096964224E+00 Z =-2.555091910062126E-01
 VX=-1.811004496677733E-03 VY= 4.191056526117951E-03 VZ= 1.039920238180185E-03
 LT= 1.158813072627514E-01 RG= 2.006422637981988E+01 RR=-1.445748784091303E-03
2456090.500000000 = A.D. 2012-Jun-12 00:00:00.0000 TDB 
 X = 1.998534681094710E+01 Y = 1.813557268006730E+00 Z =-2.541846591506421E-01
 VX=-1.371849791368728E-03 VY= 3.730432083783541E-03 VZ=-1.513866718659196E-03
 LT= 1.159092984135864E-01 RG= 2.006907289734932E+01 RR=-1.009849335963757E-03
2456100.500000000 = A.D. 2012-Jun-22 00:00:00.0000 TDB 
 X = 1.998024586267276E+01 Y = 1.851925079188573E+00 Z =-2.485786257092001E-01
 VX= 1.138009179118101E-03 VY= 3.275564364701733E-03 VZ=-8.597949467148051E-04
 LT= 1.158997948294065E-01 RG= 2.006742740275741E+01 RR= 1.446001475530663E-03
2456110.500000000 = A.D. 2012-Jul-02 00:00:00.0000 TDB 
 X = 1.997098036444846E+01 Y = 1.890171230389165E+00 Z =-2.500379875103930E-01
 VX= 4.428321364798313E-04 VY= 3.778149844638680E-03 VZ= 1.629687571275674E-03
 LT= 1.158672222301713E-01 RG= 2.006178763202758E+01 RR= 7.764840565533362E-04
